STARLINK-36088          
1 66941U 25286S   25364.58335648 -.00170074  00000+0 -31076-2 0  9990
2 66941  53.1588 322.3068 0001064  97.9843 342.2732 15.49392842  4850
STARLINK-36100          
1 66942U 25286T   25364.58335648 -.02104998  00000+0 -43683-1 0  9991
2 66942  53.1590 322.3714 0001001  89.7491 318.4230 15.48627766  4786
STARLINK-36109          
1 66943U 25286U   25364.58335648 -.00115792  00000+0 -21012-2 0  9997
2 66943  53.1585 322.3671 0001348  93.3917 316.9031 15.49357692  4782
STARLINK-36112          
1 66944U 25286V   25364.58335648 -.00123770  00000+0 -22481-2 0  9994
2 66944  53.1585 322.3629 0001505  80.0052 332.2012 15.49365337  4857
STARLINK-36110          
1 66945U 25286W   25364.58335648 -.00122097  00000+0 -22175-2 0  9996
2 66945  53.1586 322.3588 0001347  88.5743 325.5544 15.49361759  4856
STARLINK-36115          
1 66946U 25286X   25364.58335648 -.00183583  00000+0 -33598-2 0  9995
2 66946  53.1586 322.3547 0001329  79.1341 336.9031 15.49400576  4850
STARLINK-36089          
1 66947U 25286Y   25364.58335648 -.00114951  00000+0 -20881-2 0  9990
2 66947  53.1587 322.3460 0001116  93.2273 326.7289 15.49325021  4854
STARLINK-36116          
1 66948U 25286Z   25364.58335648  .00065402  00000+0  11777-2 0  9999
2 66948  53.1587 322.3507 0001252  88.8793 329.0748 15.49221724  4856
STARLINK-36096          
1 66949U 25286AA  25364.58335648 -.01411840  00000+0 -27953-1 0  9996
2 66949  53.1586 322.3423 0001667  69.0871 352.7109 15.49691759  4854
STARLINK-36111          
1 66950U 25286AB  25364.58335648 -.00112070  00000+0 -20326-2 0  9998
2 66950  53.1587 322.3345 0001359  89.7922 335.8378 15.49354755  4856
STARLINK-35999          
1 66951U 25286AC  25364.58335648 -.00147348  00000+0 -26849-2 0  9991
2 66951  53.1587 322.3305 0001374  83.0381 344.5072 15.49377405  4851
STARLINK-36122          
1 66952U 25286AD  25364.58335648 -.00126303  00000+0 -22952-2 0  9991
2 66952  53.1586 322.3386 0001245  89.9535 333.7575 15.49363834  4852
