CCSDS_OMM_VERS = 2.0
CREATION_DATE  = 
ORIGINATOR     = 

OBJECT_NAME    = STARLINK-36088
OBJECT_ID      = 2025-286S
CENTER_NAME    = EARTH
REF_FRAME      = TEME
TIME_SYSTEM    = UTC
MEAN_ELEMENT_THEORY = SGP/SGP4

EPOCH          = 2025-12-30T14:00:01.999872
MEAN_MOTION    = 15.49392842
ECCENTRICITY   = .00010644
INCLINATION    = 53.1588
RA_OF_ASC_NODE = 322.3068
ARG_OF_PERICENTER = 97.9843
MEAN_ANOMALY   = 342.2732

EPHEMERIS_TYPE = 0
CLASSIFICATION_TYPE = U
NORAD_CAT_ID   = 66941
ELEMENT_SET_NO = 999
REV_AT_EPOCH   = 485
BSTAR          = -.31075857E-2
MEAN_MOTION_DOT = -.170074E-2
MEAN_MOTION_DDOT = 0

CCSDS_OMM_VERS = 2.0
CREATION_DATE  = 
ORIGINATOR     = 

OBJECT_NAME    = STARLINK-36100
OBJECT_ID      = 2025-286T
CENTER_NAME    = EARTH
REF_FRAME      = TEME
TIME_SYSTEM    = UTC
MEAN_ELEMENT_THEORY = SGP/SGP4

EPOCH          = 2025-12-30T14:00:01.999872
MEAN_MOTION    = 15.48627766
ECCENTRICITY   = .00010014
INCLINATION    = 53.1590
RA_OF_ASC_NODE = 322.3714
ARG_OF_PERICENTER = 89.7491
MEAN_ANOMALY   = 318.4230

EPHEMERIS_TYPE = 0
CLASSIFICATION_TYPE = U
NORAD_CAT_ID   = 66942
ELEMENT_SET_NO = 999
REV_AT_EPOCH   = 478
BSTAR          = -.43682612E-1
MEAN_MOTION_DOT = -.2104998E-1
MEAN_MOTION_DDOT = 0

CCSDS_OMM_VERS = 2.0
CREATION_DATE  = 
ORIGINATOR     = 

OBJECT_NAME    = STARLINK-36109
OBJECT_ID      = 2025-286U
CENTER_NAME    = EARTH
REF_FRAME      = TEME
TIME_SYSTEM    = UTC
MEAN_ELEMENT_THEORY = SGP/SGP4

EPOCH          = 2025-12-30T14:00:01.999872
MEAN_MOTION    = 15.49357692
ECCENTRICITY   = .00013486
INCLINATION    = 53.1585
RA_OF_ASC_NODE = 322.3671
ARG_OF_PERICENTER = 93.3917
MEAN_ANOMALY   = 316.9031

EPHEMERIS_TYPE = 0
CLASSIFICATION_TYPE = U
NORAD_CAT_ID   = 66943
ELEMENT_SET_NO = 999
REV_AT_EPOCH   = 478
BSTAR          = -.21011552E-2
MEAN_MOTION_DOT = -.115792E-2
MEAN_MOTION_DDOT = 0

CCSDS_OMM_VERS = 2.0
CREATION_DATE  = 
ORIGINATOR     = 

OBJECT_NAME    = STARLINK-36112
OBJECT_ID      = 2025-286V
CENTER_NAME    = EARTH
REF_FRAME      = TEME
TIME_SYSTEM    = UTC
MEAN_ELEMENT_THEORY = SGP/SGP4

EPOCH          = 2025-12-30T14:00:01.999872
MEAN_MOTION    = 15.49365337
ECCENTRICITY   = .00015054
INCLINATION    = 53.1585
RA_OF_ASC_NODE = 322.3629
ARG_OF_PERICENTER = 80.0052
MEAN_ANOMALY   = 332.2012

EPHEMERIS_TYPE = 0
CLASSIFICATION_TYPE = U
NORAD_CAT_ID   = 66944
ELEMENT_SET_NO = 999
REV_AT_EPOCH   = 485
BSTAR          = -.2248128E-2
MEAN_MOTION_DOT = -.12377E-2
MEAN_MOTION_DDOT = 0

CCSDS_OMM_VERS = 2.0
CREATION_DATE  = 
ORIGINATOR     = 

OBJECT_NAME    = STARLINK-36110
OBJECT_ID      = 2025-286W
CENTER_NAME    = EARTH
REF_FRAME      = TEME
TIME_SYSTEM    = UTC
MEAN_ELEMENT_THEORY = SGP/SGP4

EPOCH          = 2025-12-30T14:00:01.999872
MEAN_MOTION    = 15.49361759
ECCENTRICITY   = .00013474
INCLINATION    = 53.1586
RA_OF_ASC_NODE = 322.3588
ARG_OF_PERICENTER = 88.5743
MEAN_ANOMALY   = 325.5544

EPHEMERIS_TYPE = 0
CLASSIFICATION_TYPE = U
NORAD_CAT_ID   = 66945
ELEMENT_SET_NO = 999
REV_AT_EPOCH   = 485
BSTAR          = -.2217479E-2
MEAN_MOTION_DOT = -.122097E-2
MEAN_MOTION_DDOT = 0

CCSDS_OMM_VERS = 2.0
CREATION_DATE  = 
ORIGINATOR     = 

OBJECT_NAME    = STARLINK-36115
OBJECT_ID      = 2025-286X
CENTER_NAME    = EARTH
REF_FRAME      = TEME
TIME_SYSTEM    = UTC
MEAN_ELEMENT_THEORY = SGP/SGP4

EPOCH          = 2025-12-30T14:00:01.999872
MEAN_MOTION    = 15.49400576
ECCENTRICITY   = .00013293
INCLINATION    = 53.1586
RA_OF_ASC_NODE = 322.3547
ARG_OF_PERICENTER = 79.1341
MEAN_ANOMALY   = 336.9031

EPHEMERIS_TYPE = 0
CLASSIFICATION_TYPE = U
NORAD_CAT_ID   = 66946
ELEMENT_SET_NO = 999
REV_AT_EPOCH   = 485
BSTAR          = -.33598093E-2
MEAN_MOTION_DOT = -.183583E-2
MEAN_MOTION_DDOT = 0

CCSDS_OMM_VERS = 2.0
CREATION_DATE  = 
ORIGINATOR     = 

OBJECT_NAME    = STARLINK-36089
OBJECT_ID      = 2025-286Y
CENTER_NAME    = EARTH
REF_FRAME      = TEME
TIME_SYSTEM    = UTC
MEAN_ELEMENT_THEORY = SGP/SGP4

EPOCH          = 2025-12-30T14:00:01.999872
MEAN_MOTION    = 15.49325021
ECCENTRICITY   = .00011161
INCLINATION    = 53.1587
RA_OF_ASC_NODE = 322.3460
ARG_OF_PERICENTER = 93.2273
MEAN_ANOMALY   = 326.7289

EPHEMERIS_TYPE = 0
CLASSIFICATION_TYPE = U
NORAD_CAT_ID   = 66947
ELEMENT_SET_NO = 999
REV_AT_EPOCH   = 485
BSTAR          = -.20880682E-2
MEAN_MOTION_DOT = -.114951E-2
MEAN_MOTION_DDOT = 0

CCSDS_OMM_VERS = 2.0
CREATION_DATE  = 
ORIGINATOR     = 

OBJECT_NAME    = STARLINK-36116
OBJECT_ID      = 2025-286Z
CENTER_NAME    = EARTH
REF_FRAME      = TEME
TIME_SYSTEM    = UTC
MEAN_ELEMENT_THEORY = SGP/SGP4

EPOCH          = 2025-12-30T14:00:01.999872
MEAN_MOTION    = 15.49221724
ECCENTRICITY   = .00012529
INCLINATION    = 53.1587
RA_OF_ASC_NODE = 322.3507
ARG_OF_PERICENTER = 88.8793
MEAN_ANOMALY   = 329.0748

EPHEMERIS_TYPE = 0
CLASSIFICATION_TYPE = U
NORAD_CAT_ID   = 66948
ELEMENT_SET_NO = 999
REV_AT_EPOCH   = 485
BSTAR          = .11777495E-2
MEAN_MOTION_DOT = .65402E-3
MEAN_MOTION_DDOT = 0

CCSDS_OMM_VERS = 2.0
CREATION_DATE  = 
ORIGINATOR     = 

OBJECT_NAME    = STARLINK-36096
OBJECT_ID      = 2025-286AA
CENTER_NAME    = EARTH
REF_FRAME      = TEME
TIME_SYSTEM    = UTC
MEAN_ELEMENT_THEORY = SGP/SGP4

EPOCH          = 2025-12-30T14:00:01.999872
MEAN_MOTION    = 15.49691759
ECCENTRICITY   = .0001667
INCLINATION    = 53.1586
RA_OF_ASC_NODE = 322.3423
ARG_OF_PERICENTER = 69.0871
MEAN_ANOMALY   = 352.7109

EPHEMERIS_TYPE = 0
CLASSIFICATION_TYPE = U
NORAD_CAT_ID   = 66949
ELEMENT_SET_NO = 999
REV_AT_EPOCH   = 485
BSTAR          = -.27953128E-1
MEAN_MOTION_DOT = -.141184E-1
MEAN_MOTION_DDOT = 0

CCSDS_OMM_VERS = 2.0
CREATION_DATE  = 
ORIGINATOR     = 

OBJECT_NAME    = STARLINK-36111
OBJECT_ID      = 2025-286AB
CENTER_NAME    = EARTH
REF_FRAME      = TEME
TIME_SYSTEM    = UTC
MEAN_ELEMENT_THEORY = SGP/SGP4

EPOCH          = 2025-12-30T14:00:01.999872
MEAN_MOTION    = 15.49354755
ECCENTRICITY   = .00013591
INCLINATION    = 53.1587
RA_OF_ASC_NODE = 322.3345
ARG_OF_PERICENTER = 89.7922
MEAN_ANOMALY   = 335.8378

EPHEMERIS_TYPE = 0
CLASSIFICATION_TYPE = U
NORAD_CAT_ID   = 66950
ELEMENT_SET_NO = 999
REV_AT_EPOCH   = 485
BSTAR          = -.20326013E-2
MEAN_MOTION_DOT = -.11207E-2
MEAN_MOTION_DDOT = 0

CCSDS_OMM_VERS = 2.0
CREATION_DATE  = 
ORIGINATOR     = 

OBJECT_NAME    = STARLINK-35999
OBJECT_ID      = 2025-286AC
CENTER_NAME    = EARTH
REF_FRAME      = TEME
TIME_SYSTEM    = UTC
MEAN_ELEMENT_THEORY = SGP/SGP4

EPOCH          = 2025-12-30T14:00:01.999872
MEAN_MOTION    = 15.49377405
ECCENTRICITY   = .00013743
INCLINATION    = 53.1587
RA_OF_ASC_NODE = 322.3305
ARG_OF_PERICENTER = 83.0381
MEAN_ANOMALY   = 344.5072

EPHEMERIS_TYPE = 0
CLASSIFICATION_TYPE = U
NORAD_CAT_ID   = 66951
ELEMENT_SET_NO = 999
REV_AT_EPOCH   = 485
BSTAR          = -.26848757E-2
MEAN_MOTION_DOT = -.147348E-2
MEAN_MOTION_DDOT = 0

CCSDS_OMM_VERS = 2.0
CREATION_DATE  = 
ORIGINATOR     = 

OBJECT_NAME    = STARLINK-36122
OBJECT_ID      = 2025-286AD
CENTER_NAME    = EARTH
REF_FRAME      = TEME
TIME_SYSTEM    = UTC
MEAN_ELEMENT_THEORY = SGP/SGP4

EPOCH          = 2025-12-30T14:00:01.999872
MEAN_MOTION    = 15.49363834
ECCENTRICITY   = .00012459
INCLINATION    = 53.1586
RA_OF_ASC_NODE = 322.3386
ARG_OF_PERICENTER = 89.9535
MEAN_ANOMALY   = 333.7575

EPHEMERIS_TYPE = 0
CLASSIFICATION_TYPE = U
NORAD_CAT_ID   = 66952
ELEMENT_SET_NO = 999
REV_AT_EPOCH   = 485
BSTAR          = -.2295214E-2
MEAN_MOTION_DOT = -.126303E-2
MEAN_MOTION_DDOT = 0

